KUIPER-00153            
1 65773U 25217M   26191.06624205  .00001320  00000+0  20209-3 0  9990
2 65773  51.9013 204.5271 0000474  81.7704 278.3312 14.79934731 43249
KUIPER-00155            
1 65774U 25217N   26191.36601613 -.00000093  00000+0  16834-4 0  9999
2 65774  51.9011 175.6648 0000589  70.1414 289.9611 14.79926751 43671
KUIPER-00156            
1 65775U 25217P   26191.03248582  .00001490  00000+0  22452-3 0  9999
2 65775  51.9026 204.6585 0000472  72.0331 288.0683 14.79920836 43230
KUIPER-00163            
1 65777U 25217R   26191.69600009  .00415384  86842-4  71546-3 0  9991
2 65777  51.8741 141.8178 0004041  75.2769 284.8693 16.01809781 44150
KUIPER-00165            
1 65778U 25217S   26191.08919592  .00001130  00000+0  17725-3 0  9991
2 65778  51.8981 214.3544 0000659  92.2244 267.8794 14.79930956 43107
KUIPER-00166            
1 65779U 25217T   26190.73128880 -.00000255  00000+0 -44852-5 0  9997
2 65779  51.9010 203.4845 0000460  76.2952 283.8061 14.79925460 43225
KUIPER-00167            
1 65780U 25217U   26191.48356352  .00001351  00000+0  20626-3 0  9996
2 65780  51.8950 222.5211 0000514  86.1763 273.9258 14.79927824 43020
KUIPER-00168            
1 65781U 25217V   26191.02977728 -.00000216  00000+0  63878-6 0  9992
2 65781  51.8993 207.1207 0000485  79.8961 280.2056 14.79925271 43209
KUIPER-00169            
1 65782U 25217W   26191.09192541  .00001295  00000+0  19882-3 0  9992
2 65782  51.8997 211.8553 0000467  80.3951 279.7064 14.79928137 43145
KUIPER-00170            
1 65783U 25217X   26191.55922432  .00000609  00000+0  10885-3 0  9996
2 65783  51.8988 214.7459 0000492  98.1054 261.9965 14.79924475 43146
KUIPER-00172            
1 65785U 25217Z   26191.40928977  .00001353  00000+0  20652-3 0  9992
2 65785  51.8982 197.9394 0000831  92.1501 267.9557 14.79928056 43366
KUIPER-00173            
1 65786U 25217AA  26191.46329094  .00001326  00000+0  20298-3 0  9990
2 65786  51.8996 210.2086 0000529  81.8367 278.2655 14.79929649 43192
KUIPER-00174            
1 65787U 25217AB  26191.46872061  .00000864  00000+0  14236-3 0  9999
2 65787  51.9004 205.2333 0000459  82.2912 277.8102 14.79934559 43262
KUIPER-00176            
1 65788U 25217AC  26191.11486833  .00001534  00000+0  23010-3 0  9995
2 65788  51.8991 221.7328 0000353  88.3406 271.7597 14.79940386 43000
KUIPER-00101            
1 65947U 25228A   26191.32953994  .00001523  00000+0  22864-3 0  9998
2 65947  51.8977 178.2415 0000535  69.3644 290.7376 14.79938342 41394
KUIPER-00113            
1 65948U 25228B   26191.30117637  .00001570  00000+0  23490-3 0  9991
2 65948  51.8979 173.3869 0000534  70.7768 289.3252 14.79925391 41452
