{"fetched_at":"2026-07-11T06:35:05.049Z","source":"https://celestrak.org/NORAD/elements/gp.php?GROUP=kuiper&FORMAT=JSON","constellation":"kuiper","records":[{"OBJECT_NAME":"KUIPER-00153","OBJECT_ID":"2025-217M","EPOCH":"2026-07-10T01:35:23.313120","CLASSIFICATION_TYPE":"U","MEAN_MOTION":14.79934731,"ECCENTRICITY":0.00004746,"INCLINATION":51.9013,"RA_OF_ASC_NODE":204.5271,"ARG_OF_PERICENTER":81.7704,"MEAN_ANOMALY":278.3312,"EPHEMERIS_TYPE":0,"NORAD_CAT_ID":65773,"ELEMENT_SET_NO":999,"REV_AT_EPOCH":4324,"BSTAR":0.00020208824,"MEAN_MOTION_DOT":0.0000132,"MEAN_MOTION_DDOT":0},{"OBJECT_NAME":"KUIPER-00155","OBJECT_ID":"2025-217N","EPOCH":"2026-07-10T08:47:03.793632","CLASSIFICATION_TYPE":"U","MEAN_MOTION":14.79926751,"ECCENTRICITY":0.00005897,"INCLINATION":51.9011,"RA_OF_ASC_NODE":175.6648,"ARG_OF_PERICENTER":70.1414,"MEAN_ANOMALY":289.9611,"EPHEMERIS_TYPE":0,"NORAD_CAT_ID":65774,"ELEMENT_SET_NO":999,"REV_AT_EPOCH":4367,"BSTAR":0.000016834333,"MEAN_MOTION_DOT":-9.3e-7,"MEAN_MOTION_DDOT":0},{"OBJECT_NAME":"KUIPER-00156","OBJECT_ID":"2025-217P","EPOCH":"2026-07-10T00:46:46.774848","CLASSIFICATION_TYPE":"U","MEAN_MOTION":14.79920836,"ECCENTRICITY":0.00004724,"INCLINATION":51.9026,"RA_OF_ASC_NODE":204.6585,"ARG_OF_PERICENTER":72.0331,"MEAN_ANOMALY":288.0683,"EPHEMERIS_TYPE":0,"NORAD_CAT_ID":65775,"ELEMENT_SET_NO":999,"REV_AT_EPOCH":4323,"BSTAR":0.00022452226,"MEAN_MOTION_DOT":0.0000149,"MEAN_MOTION_DDOT":0},{"OBJECT_NAME":"KUIPER-00163","OBJECT_ID":"2025-217R","EPOCH":"2026-07-10T16:42:14.407776","CLASSIFICATION_TYPE":"U","MEAN_MOTION":16.01809781,"ECCENTRICITY":0.0004041,"INCLINATION":51.8741,"RA_OF_ASC_NODE":141.8178,"ARG_OF_PERICENTER":75.2769,"MEAN_ANOMALY":284.8693,"EPHEMERIS_TYPE":0,"NORAD_CAT_ID":65777,"ELEMENT_SET_NO":999,"REV_AT_EPOCH":4415,"BSTAR":0.00071546,"MEAN_MOTION_DOT":0.00415384,"MEAN_MOTION_DDOT":0.000086842},{"OBJECT_NAME":"KUIPER-00165","OBJECT_ID":"2025-217S","EPOCH":"2026-07-10T02:08:26.527488","CLASSIFICATION_TYPE":"U","MEAN_MOTION":14.79930956,"ECCENTRICITY":0.00006594,"INCLINATION":51.8981,"RA_OF_ASC_NODE":214.3544,"ARG_OF_PERICENTER":92.2244,"MEAN_ANOMALY":267.8794,"EPHEMERIS_TYPE":0,"NORAD_CAT_ID":65778,"ELEMENT_SET_NO":999,"REV_AT_EPOCH":4310,"BSTAR":0.000177245,"MEAN_MOTION_DOT":0.0000113,"MEAN_MOTION_DDOT":0},{"OBJECT_NAME":"KUIPER-00166","OBJECT_ID":"2025-217T","EPOCH":"2026-07-09T17:33:03.352320","CLASSIFICATION_TYPE":"U","MEAN_MOTION":14.7992546,"ECCENTRICITY":0.00004604,"INCLINATION":51.901,"RA_OF_ASC_NODE":203.4845,"ARG_OF_PERICENTER":76.2952,"MEAN_ANOMALY":283.8061,"EPHEMERIS_TYPE":0,"NORAD_CAT_ID":65779,"ELEMENT_SET_NO":999,"REV_AT_EPOCH":4322,"BSTAR":-0.000004485159,"MEAN_MOTION_DOT":-0.00000255,"MEAN_MOTION_DDOT":0},{"OBJECT_NAME":"KUIPER-00167","OBJECT_ID":"2025-217U","EPOCH":"2026-07-10T11:36:19.888128","CLASSIFICATION_TYPE":"U","MEAN_MOTION":14.79927824,"ECCENTRICITY":0.0000514,"INCLINATION":51.895,"RA_OF_ASC_NODE":222.5211,"ARG_OF_PERICENTER":86.1763,"MEAN_ANOMALY":273.9258,"EPHEMERIS_TYPE":0,"NORAD_CAT_ID":65780,"ELEMENT_SET_NO":999,"REV_AT_EPOCH":4302,"BSTAR":0.00020626,"MEAN_MOTION_DOT":0.00001351,"MEAN_MOTION_DDOT":0},{"OBJECT_NAME":"KUIPER-00168","OBJECT_ID":"2025-217V","EPOCH":"2026-07-10T00:42:52.756992","CLASSIFICATION_TYPE":"U","MEAN_MOTION":14.79925271,"ECCENTRICITY":0.00004858,"INCLINATION":51.8993,"RA_OF_ASC_NODE":207.1207,"ARG_OF_PERICENTER":79.8961,"MEAN_ANOMALY":280.2056,"EPHEMERIS_TYPE":0,"NORAD_CAT_ID":65781,"ELEMENT_SET_NO":999,"REV_AT_EPOCH":4320,"BSTAR":6.3878e-7,"MEAN_MOTION_DOT":-0.00000216,"MEAN_MOTION_DDOT":0},{"OBJECT_NAME":"KUIPER-00169","OBJECT_ID":"2025-217W","EPOCH":"2026-07-10T02:12:22.355424","CLASSIFICATION_TYPE":"U","MEAN_MOTION":14.79928137,"ECCENTRICITY":0.0000467,"INCLINATION":51.8997,"RA_OF_ASC_NODE":211.8553,"ARG_OF_PERICENTER":80.3951,"MEAN_ANOMALY":279.7064,"EPHEMERIS_TYPE":0,"NORAD_CAT_ID":65782,"ELEMENT_SET_NO":999,"REV_AT_EPOCH":4314,"BSTAR":0.00019882445,"MEAN_MOTION_DOT":0.00001295,"MEAN_MOTION_DDOT":0},{"OBJECT_NAME":"KUIPER-00170","OBJECT_ID":"2025-217X","EPOCH":"2026-07-10T13:25:16.981248","CLASSIFICATION_TYPE":"U","MEAN_MOTION":14.79924475,"ECCENTRICITY":0.0000492,"INCLINATION":51.8988,"RA_OF_ASC_NODE":214.7459,"ARG_OF_PERICENTER":98.1054,"MEAN_ANOMALY":261.9965,"EPHEMERIS_TYPE":0,"NORAD_CAT_ID":65783,"ELEMENT_SET_NO":999,"REV_AT_EPOCH":4314,"BSTAR":0.00010885,"MEAN_MOTION_DOT":0.00000609,"MEAN_MOTION_DDOT":0},{"OBJECT_NAME":"KUIPER-00172","OBJECT_ID":"2025-217Z","EPOCH":"2026-07-10T09:49:22.636128","CLASSIFICATION_TYPE":"U","MEAN_MOTION":14.79928056,"ECCENTRICITY":0.0000831,"INCLINATION":51.8982,"RA_OF_ASC_NODE":197.9394,"ARG_OF_PERICENTER":92.1501,"MEAN_ANOMALY":267.9557,"EPHEMERIS_TYPE":0,"NORAD_CAT_ID":65785,"ELEMENT_SET_NO":999,"REV_AT_EPOCH":4336,"BSTAR":0.00020652057,"MEAN_MOTION_DOT":0.00001353,"MEAN_MOTION_DDOT":0},{"OBJECT_NAME":"KUIPER-00173","OBJECT_ID":"2025-217AA","EPOCH":"2026-07-10T11:07:08.337216","CLASSIFICATION_TYPE":"U","MEAN_MOTION":14.79929649,"ECCENTRICITY":0.0000529,"INCLINATION":51.8996,"RA_OF_ASC_NODE":210.2086,"ARG_OF_PERICENTER":81.8367,"MEAN_ANOMALY":278.2655,"EPHEMERIS_TYPE":0,"NORAD_CAT_ID":65786,"ELEMENT_SET_NO":999,"REV_AT_EPOCH":4319,"BSTAR":0.00020298,"MEAN_MOTION_DOT":0.00001326,"MEAN_MOTION_DDOT":0},{"OBJECT_NAME":"KUIPER-00174","OBJECT_ID":"2025-217AB","EPOCH":"2026-07-10T11:14:57.460704","CLASSIFICATION_TYPE":"U","MEAN_MOTION":14.79934559,"ECCENTRICITY":0.0000459,"INCLINATION":51.9004,"RA_OF_ASC_NODE":205.2333,"ARG_OF_PERICENTER":82.2912,"MEAN_ANOMALY":277.8102,"EPHEMERIS_TYPE":0,"NORAD_CAT_ID":65787,"ELEMENT_SET_NO":999,"REV_AT_EPOCH":4326,"BSTAR":0.00014236,"MEAN_MOTION_DOT":0.00000864,"MEAN_MOTION_DDOT":0},{"OBJECT_NAME":"KUIPER-00176","OBJECT_ID":"2025-217AC","EPOCH":"2026-07-10T02:45:24.623712","CLASSIFICATION_TYPE":"U","MEAN_MOTION":14.79940386,"ECCENTRICITY":0.00003533,"INCLINATION":51.8991,"RA_OF_ASC_NODE":221.7328,"ARG_OF_PERICENTER":88.3406,"MEAN_ANOMALY":271.7597,"EPHEMERIS_TYPE":0,"NORAD_CAT_ID":65788,"ELEMENT_SET_NO":999,"REV_AT_EPOCH":4300,"BSTAR":0.00023010006,"MEAN_MOTION_DOT":0.00001534,"MEAN_MOTION_DDOT":0},{"OBJECT_NAME":"KUIPER-00101","OBJECT_ID":"2025-228A","EPOCH":"2026-07-10T07:54:32.250816","CLASSIFICATION_TYPE":"U","MEAN_MOTION":14.79938342,"ECCENTRICITY":0.00005352,"INCLINATION":51.8977,"RA_OF_ASC_NODE":178.2415,"ARG_OF_PERICENTER":69.3644,"MEAN_ANOMALY":290.7376,"EPHEMERIS_TYPE":0,"NORAD_CAT_ID":65947,"ELEMENT_SET_NO":999,"REV_AT_EPOCH":4139,"BSTAR":0.00022864113,"MEAN_MOTION_DOT":0.00001523,"MEAN_MOTION_DDOT":0},{"OBJECT_NAME":"KUIPER-00113","OBJECT_ID":"2025-228B","EPOCH":"2026-07-10T07:13:41.638368","CLASSIFICATION_TYPE":"U","MEAN_MOTION":14.79925391,"ECCENTRICITY":0.00005345,"INCLINATION":51.8979,"RA_OF_ASC_NODE":173.3869,"ARG_OF_PERICENTER":70.7768,"MEAN_ANOMALY":289.3252,"EPHEMERIS_TYPE":0,"NORAD_CAT_ID":65948,"ELEMENT_SET_NO":999,"REV_AT_EPOCH":4145,"BSTAR":0.00023490202,"MEAN_MOTION_DOT":0.0000157,"MEAN_MOTION_DDOT":0}]}
